[{"OBJECT_NAME":"SL-8 R/B","OBJECT_ID":"1990-078B","EPOCH":"2026-03-03T23:57:02.000448","MEAN_MOTION":14.88836115,"ECCENTRICITY":0.0363616,"INCLINATION":82.8989,"RA_OF_ASC_NODE":256.4302,"ARG_OF_PERICENTER":33.1204,"MEAN_ANOMALY":329.2215,"EPHEMERIS_TYPE":0,"CLASSIFICATION_TYPE":"U","NORAD_CAT_ID":20775,"ELEMENT_SET_NO":999,"REV_AT_EPOCH":80845,"BSTAR":0.00061062512,"MEAN_MOTION_DOT":0.00020766,"MEAN_MOTION_DDOT":0},{"OBJECT_NAME":"SL-8 R/B","OBJECT_ID":"1991-006B","EPOCH":"2026-03-04T18:41:01.307040","MEAN_MOTION":13.77493594,"ECCENTRICITY":0.0023339,"INCLINATION":82.9464,"RA_OF_ASC_NODE":173.6966,"ARG_OF_PERICENTER":51.5962,"MEAN_ANOMALY":112.6575,"EPHEMERIS_TYPE":0,"CLASSIFICATION_TYPE":"U","NORAD_CAT_ID":21088,"ELEMENT_SET_NO":999,"REV_AT_EPOCH":76339,"BSTAR":6.3373e-5,"MEAN_MOTION_DOT":7.9e-7,"MEAN_MOTION_DDOT":0},{"OBJECT_NAME":"OKEAN-3","OBJECT_ID":"1991-039A","EPOCH":"2026-03-04T18:11:54.938400","MEAN_MOTION":15.0476204,"ECCENTRICITY":0.0014249,"INCLINATION":82.5197,"RA_OF_ASC_NODE":341.6199,"ARG_OF_PERICENTER":356.3997,"MEAN_ANOMALY":3.7125,"EPHEMERIS_TYPE":0,"CLASSIFICATION_TYPE":"U","NORAD_CAT_ID":21397,"ELEMENT_SET_NO":999,"REV_AT_EPOCH":86429,"BSTAR":0.00031555,"MEAN_MOTION_DOT":4.484e-5,"MEAN_MOTION_DDOT":0},{"OBJECT_NAME":"COSMOS 2151","OBJECT_ID":"1991-042A","EPOCH":"2026-03-04T19:32:04.349472","MEAN_MOTION":15.00082844,"ECCENTRICITY":0.0014089,"INCLINATION":82.4928,"RA_OF_ASC_NODE":88.3807,"ARG_OF_PERICENTER":78.24,"MEAN_ANOMALY":282.0403,"EPHEMERIS_TYPE":0,"CLASSIFICATION_TYPE":"U","NORAD_CAT_ID":21422,"ELEMENT_SET_NO":999,"REV_AT_EPOCH":86246,"BSTAR":0.00022646,"MEAN_MOTION_DOT":2.853e-5,"MEAN_MOTION_DDOT":0},{"OBJECT_NAME":"SL-14 R/B","OBJECT_ID":"1991-042B","EPOCH":"2026-03-04T11:46:38.050752","MEAN_MOTION":14.81823576,"ECCENTRICITY":0.00156208,"INCLINATION":82.4912,"RA_OF_ASC_NODE":225.0577,"ARG_OF_PERICENTER":257.1611,"MEAN_ANOMALY":102.7858,"EPHEMERIS_TYPE":0,"CLASSIFICATION_TYPE":"U","NORAD_CAT_ID":21423,"ELEMENT_SET_NO":999,"REV_AT_EPOCH":85230,"BSTAR":8.6798866e-5,"MEAN_MOTION_DOT":7.1e-6,"MEAN_MOTION_DDOT":0},{"OBJECT_NAME":"ERS-1","OBJECT_ID":"1991-050A","EPOCH":"2026-03-04T18:17:20.441760","MEAN_MOTION":14.39444964,"ECCENTRICITY":0.0031356,"INCLINATION":98.7886,"RA_OF_ASC_NODE":81.8728,"ARG_OF_PERICENTER":215.2662,"MEAN_ANOMALY":144.6451,"EPHEMERIS_TYPE":0,"CLASSIFICATION_TYPE":"U","NORAD_CAT_ID":21574,"ELEMENT_SET_NO":999,"REV_AT_EPOCH":81502,"BSTAR":0.00015496,"MEAN_MOTION_DOT":4.39e-6,"MEAN_MOTION_DDOT":0},{"OBJECT_NAME":"ARIANE 40 R/B","OBJECT_ID":"1991-050F","EPOCH":"2026-03-04T03:09:00.702432","MEAN_MOTION":14.4288901,"ECCENTRICITY":0.00043627,"INCLINATION":98.2024,"RA_OF_ASC_NODE":115.5761,"ARG_OF_PERICENTER":93.2924,"MEAN_ANOMALY":266.8765,"EPHEMERIS_TYPE":0,"CLASSIFICATION_TYPE":"U","NORAD_CAT_ID":21610,"ELEMENT_SET_NO":999,"REV_AT_EPOCH":81819,"BSTAR":0.00013952969,"MEAN_MOTION_DOT":4.24e-6,"MEAN_MOTION_DDOT":0},{"OBJECT_NAME":"INTERCOSMOS 25","OBJECT_ID":"1991-086A","EPOCH":"2026-03-04T03:02:10.927968","MEAN_MOTION":12.11982538,"ECCENTRICITY":0.1487059,"INCLINATION":82.6063,"RA_OF_ASC_NODE":313.3703,"ARG_OF_PERICENTER":128.9167,"MEAN_ANOMALY":245.4246,"EPHEMERIS_TYPE":0,"CLASSIFICATION_TYPE":"U","NORAD_CAT_ID":21819,"ELEMENT_SET_NO":999,"REV_AT_EPOCH":49601,"BSTAR":0.00033298708,"MEAN_MOTION_DOT":1.733e-5,"MEAN_MOTION_DDOT":0},{"OBJECT_NAME":"SL-8 R/B","OBJECT_ID":"1992-008B","EPOCH":"2026-03-04T20:09:12.694464","MEAN_MOTION":13.75969772,"ECCENTRICITY":0.0035309,"INCLINATION":82.9227,"RA_OF_ASC_NODE":271.387,"ARG_OF_PERICENTER":146.5403,"MEAN_ANOMALY":224.8947,"EPHEMERIS_TYPE":0,"CLASSIFICATION_TYPE":"U","NORAD_CAT_ID":21876,"ELEMENT_SET_NO":999,"REV_AT_EPOCH":70875,"BSTAR":-1.0538e-5,"MEAN_MOTION_DOT":5.0e-8,"MEAN_MOTION_DDOT":0},{"OBJECT_NAME":"SL-8 R/B","OBJECT_ID":"1992-020B","EPOCH":"2026-03-04T09:12:25.855776","MEAN_MOTION":13.75548821,"ECCENTRICITY":0.00278742,"INCLINATION":82.9341,"RA_OF_ASC_NODE":157.7001,"ARG_OF_PERICENTER":314.2233,"MEAN_ANOMALY":113.7047,"EPHEMERIS_TYPE":0,"CLASSIFICATION_TYPE":"U","NORAD_CAT_ID":21938,"ELEMENT_SET_NO":999,"REV_AT_EPOCH":70040,"BSTAR":9.2840972e-5,"MEAN_MOTION_DOT":1.05e-6,"MEAN_MOTION_DDOT":0},{"OBJECT_NAME":"USA 81","OBJECT_ID":"1992-023A","EPOCH":"2026-03-04T06:42:51.048864","MEAN_MOTION":14.32366052,"ECCENTRICITY":0.0002602,"INCLINATION":85.0095,"RA_OF_ASC_NODE":134.5619,"ARG_OF_PERICENTER":81.858,"MEAN_ANOMALY":278.2908,"EPHEMERIS_TYPE":0,"CLASSIFICATION_TYPE":"U","NORAD_CAT_ID":21949,"ELEMENT_SET_NO":999,"REV_AT_EPOCH":9401,"BSTAR":8.9261397e-5,"MEAN_MOTION_DOT":2.61e-6,"MEAN_MOTION_DDOT":0},{"OBJECT_NAME":"COSMOS 2219","OBJECT_ID":"1992-076A","EPOCH":"2026-03-04T08:34:15.259584","MEAN_MOTION":14.14089889,"ECCENTRICITY":0.00192922,"INCLINATION":71.0621,"RA_OF_ASC_NODE":29.2143,"ARG_OF_PERICENTER":214.1799,"MEAN_ANOMALY":145.8083,"EPHEMERIS_TYPE":0,"CLASSIFICATION_TYPE":"U","NORAD_CAT_ID":22219,"ELEMENT_SET_NO":999,"REV_AT_EPOCH":71762,"BSTAR":0.00018505788,"MEAN_MOTION_DOT":3.06e-6,"MEAN_MOTION_DDOT":0},{"OBJECT_NAME":"SL-16 R/B","OBJECT_ID":"1992-076B","EPOCH":"2026-03-04T11:20:53.471904","MEAN_MOTION":14.16860223,"ECCENTRICITY":0.00105788,"INCLINATION":71,"RA_OF_ASC_NODE":199.3614,"ARG_OF_PERICENTER":106.0891,"MEAN_ANOMALY":318.3363,"EPHEMERIS_TYPE":0,"CLASSIFICATION_TYPE":"U","NORAD_CAT_ID":22220,"ELEMENT_SET_NO":999,"REV_AT_EPOCH":72109,"BSTAR":3.3151224e-5,"MEAN_MOTION_DOT":1.9e-7,"MEAN_MOTION_DDOT":0},{"OBJECT_NAME":"COSMOS 2221","OBJECT_ID":"1992-080A","EPOCH":"2026-03-04T13:18:38.596896","MEAN_MOTION":14.9617824,"ECCENTRICITY":0.0013562,"INCLINATION":82.5016,"RA_OF_ASC_NODE":284.0007,"ARG_OF_PERICENTER":205.0772,"MEAN_ANOMALY":154.9793,"EPHEMERIS_TYPE":0,"CLASSIFICATION_TYPE":"U","NORAD_CAT_ID":22236,"ELEMENT_SET_NO":999,"REV_AT_EPOCH":78002,"BSTAR":0.00020906,"MEAN_MOTION_DOT":2.384e-5,"MEAN_MOTION_DDOT":0},{"OBJECT_NAME":"SL-16 R/B","OBJECT_ID":"1992-093B","EPOCH":"2026-03-04T19:01:19.826112","MEAN_MOTION":14.15449374,"ECCENTRICITY":0.0006331,"INCLINATION":71.0239,"RA_OF_ASC_NODE":14.5451,"ARG_OF_PERICENTER":298.8752,"MEAN_ANOMALY":61.1735,"EPHEMERIS_TYPE":0,"CLASSIFICATION_TYPE":"U","NORAD_CAT_ID":22285,"ELEMENT_SET_NO":999,"REV_AT_EPOCH":71246,"BSTAR":-5.5928e-5,"MEAN_MOTION_DOT":-1.57e-6,"MEAN_MOTION_DDOT":0},{"OBJECT_NAME":"COSMOS 2228","OBJECT_ID":"1992-094A","EPOCH":"2026-03-04T18:35:49.339968","MEAN_MOTION":14.97161563,"ECCENTRICITY":0.0017103,"INCLINATION":82.5147,"RA_OF_ASC_NODE":242.0172,"ARG_OF_PERICENTER":322.2492,"MEAN_ANOMALY":37.7529,"EPHEMERIS_TYPE":0,"CLASSIFICATION_TYPE":"U","NORAD_CAT_ID":22286,"ELEMENT_SET_NO":999,"REV_AT_EPOCH":77532,"BSTAR":0.00030439,"MEAN_MOTION_DOT":3.551e-5,"MEAN_MOTION_DDOT":0},{"OBJECT_NAME":"SL-16 R/B","OBJECT_ID":"1993-016B","EPOCH":"2026-03-04T16:35:18.047904","MEAN_MOTION":14.15306002,"ECCENTRICITY":0.0011441,"INCLINATION":71.006,"RA_OF_ASC_NODE":225.6794,"ARG_OF_PERICENTER":321.1369,"MEAN_ANOMALY":38.893,"EPHEMERIS_TYPE":0,"CLASSIFICATION_TYPE":"U","NORAD_CAT_ID":22566,"ELEMENT_SET_NO":999,"REV_AT_EPOCH":70146,"BSTAR":0.00017996,"MEAN_MOTION_DOT":3.03e-6,"MEAN_MOTION_DDOT":0}]
